COSMOS 2503             
1 40420U 15009A   26068.69626972  .00002817  00000+0  19590-3 0  9998
2 40420  97.8437 123.7175 0015321 225.7450 134.2520 15.06275973603958
STARLINK-6202           
1 56896U 23083W   26068.08904037  .00000198  00000+0  29712-4 0  9995
2 56896  42.9997  84.7262 0000690 287.0195  73.0572 15.02535086151693
